HIMAWARI-8              
1 40267U 14060A   24133.79216310 -.00000280  00000+0  00000+0 0  9991
2 40267   0.0487 117.3846 0000981 336.6927 202.7951  1.00270798 35080
